SITRO-AIS 25            
1 59066U 24039R   26050.61858536  .00004075  00000+0  32389-3 0  9992
2 59066  95.3949 154.3421 0147807  19.6713 341.0130 14.92463122107184
SITRO-AIS 26            
1 59067U 24039S   26050.53767804  .00003674  00000+0  29351-3 0  9990
2 59067  95.3950 154.2070 0148148  20.3814 340.3237 14.92277054107161
SITRO-AIS 27            
1 59068U 24039T   26050.60684374  .00003772  00000+0  29880-3 0  9995
2 59068  95.3949 154.4740 0147199  19.0125 341.6514 14.92669341107190
HULIANWAN GAOGUI-01 (H*)
1 59069U 24040A   26050.25558369  .00000161  00000+0  00000+0 0  9991
2 59069   0.0564 305.9774 0003743  45.7753 283.1156  1.00272094  6141
SITRO-AIS 28            
1 59071U 24039U   26050.58699448  .00003336  00000+0  26443-3 0  9992
2 59071  95.3953 154.5013 0147151  18.9821 341.6808 14.92705708107196
MARAFON-D GVM           
1 59072U 24039V   26050.65761127  .00000259  00000+0  68332-4 0  9990
2 59072  88.9850 298.0353 0017457  22.1473 338.0482 14.45951007104207
STARLINK-31265          
1 59074U 24041A   26050.00367725 -.00001981  00000+0 -62505-4 0  9991
2 59074  43.0056  56.2401 0001209 217.8750 142.2017 15.27566267111417
STARLINK-31276          
1 59075U 24041B   26050.42925707  .00002182  00000+0  88786-4 0  9999
2 59075  43.0006  53.4196 0000970 262.1430  97.9311 15.27575728111533
STARLINK-31259          
1 59076U 24041C   26050.36771919  .00004007  00000+0  15509-3 0  9997
2 59076  43.0064  53.8157 0002605 260.0550 100.0008 15.27572548110429
STARLINK-31281          
1 59077U 24041D   26050.37158097 -.00000339  00000+0 -28073-5 0  9993
2 59077  42.9975  53.8416 0000884 230.4761 129.6012 15.27574591111523
STARLINK-31274          
1 59078U 24041E   26050.00881346  .00001500  00000+0  64032-4 0  9997
2 59078  43.0057  56.2788 0001543 271.6940  88.3735 15.27575830111413
STARLINK-31257          
1 59079U 24041F   26050.05750108  .00008153  00000+0  30582-3 0  9997
2 59079  43.0107  55.7870 0002762 287.9567  72.0983 15.27542984111425
STARLINK-31299          
1 59080U 24041G   26050.58336806  .00909753  00000+0  56914-2 0  9994
2 59080  42.9869 302.3312 0027639 234.4270   9.2101 15.73060898  5819
STARLINK-31292          
1 59081U 24041H   26050.04849970  .00001151  00000+0  51350-4 0  9993
2 59081  42.9977  55.7167 0000454 182.8895 177.1954 15.27575399111413
STARLINK-31286          
1 59082U 24041J   26050.05236225  .00000221  00000+0  17568-4 0  9998
2 59082  43.0033  55.7453 0001161 267.4005  92.6714 15.27570375111500
STARLINK-31252          
1 59083U 24041K   26050.17699892  .00000289  00000+0  20021-4 0  9997
2 59083  43.0028 332.0624 0001485 233.6000 126.4715 15.27582489112445
STARLINK-31261          
1 59084U 24041L   26050.40759445  .00027554  00000+0  10109-2 0  9993
2 59084  43.0022  54.1058 0000676 176.6705 183.4152 15.27456175111520
STARLINK-31290          
1 59085U 24041M   26050.36323841  .00000753  00000+0  36892-4 0  9997
2 59085  43.0063  39.9358 0001407 266.2860  93.7831 15.27578676111776
STARLINK-31279          
1 59086U 24041N   26050.35632532  .00014335  00000+0  52953-3 0  9993
2 59086  42.9977  54.5849 0000845 328.3138  31.7663 15.27573423111512
STARLINK-31266          
1 59087U 24041P   26050.38314339  .00000329  00000+0  21499-4 0  9999
2 59087  43.0050  53.9290 0001237 285.7173  74.3542 15.27579081111527
STARLINK-31313          
1 59088U 24041Q   26050.38569446 -.00002758  00000+0 -90655-4 0  9991
2 59088  43.0002  53.9467 0000623 146.8254 213.2636 15.27616701111479
STARLINK-31307          
1 59089U 24041R   26050.38185933  .00000113  00000+0  13606-4 0  9999
2 59089  43.0022  53.9195 0000801 239.0271 121.0502 15.27582748111529
STARLINK-31316          
1 59090U 24041S   26050.25452283  .00003782  00000+0  14687-3 0  9996
2 59090  43.0016   7.9970 0000862 251.0609 109.0149 15.27582860111933
STARLINK-31310          
1 59092U 24041U   26050.42811935  .00000888  00000+0  41774-4 0  9992
2 59092  43.0000  54.2596 0000968 219.4105 140.6677 15.27575750111479
STARLINK-31343          
1 59093U 24041V   26050.02294647  .00000585  00000+0  30769-4 0  9990
2 59093  43.0001  56.3754 0001101 241.8700 118.2041 15.27584502111460
STARLINK-31295          
1 59095U 24041X   26050.00110904  .00001483  00000+0  63403-4 0  9992
2 59095  43.0040  56.2155 0000857 236.0880 123.9890 15.27572585111419
STARLINK-31291          
1 59096U 24041Y   26050.06392524 -.00000511  00000+0 -90580-5 0  9999
2 59096  43.0046  55.8235 0001360 207.8108 152.2671 15.27575070111424
HORACIO                 
1 59098U 24043A   26050.61008351  .00002403  00000+0  20893-3 0  9994
2 59098  97.8314 181.8116 0011376  55.8069 304.4230 14.97896810107065
MUSAT-2                 
1 59099U 24043B   26050.32766281  .00008018  00000+0  54206-3 0  9999
2 59099  97.8404 186.5005 0007282  19.7554 340.3953 15.06808584107337
ICEYE-X38               
1 59100U 24043C   26050.60230204  .00007540  00000+0  44970-3 0  9990
2 59100  97.8211 191.3529 0003496 123.3730 236.7834 15.11448369 93902
ICEYE-X37               
1 59102U 24043E   26050.61188081  .00004453  00000+0  31775-3 0  9997
2 59102  97.8115 185.9914 0016185  51.2077 309.0591 15.04961194107397
ICEYE-X36               
1 59103U 24043F   26050.60871397  .00005027  00000+0  35204-3 0  9995
2 59103  97.8168 186.8297 0005781   7.7171 352.4143 15.05691106107446
PE2_FLT2  (TYVAK-0262)  
1 59104U 24043G   26050.33620795  .00002869  00000+0  25830-3 0  9995
2 59104  97.8213 180.8632 0007281  80.7275 279.4770 14.96395861107024
PE2_FLT1 (TYVAK-0261)   
1 59105U 24043H   26050.60375633  .00002950  00000+0  26549-3 0  9993
2 59105  97.8201 181.1132 0006590  73.5198 286.6747 14.96399739107063
RROCI-2                 
1 59106U 24043J   26050.61698015  .00002691  00000+0  22558-3 0  9995
2 59106  97.8253 182.6262 0007206  26.7216 333.4377 14.99242660107149
BRO-13                  
1 59107U 24043K   26050.53979500  .00001083  00000+0  10121-3 0  9995
2 59107  97.8305 181.3438 0009653  36.9555 323.2329 14.96214610107028
BRO-12                  
1 59108U 24043L   26050.48824288  .00001693  00000+0  15432-3 0  9999
2 59108  97.8283 181.4308 0008760  33.2804 326.8967 14.96454252107032
SONATE-2                
1 59112U 24043Q   26050.39581720  .00032028  00000+0  57410-3 0  9993
2 59112  97.5380 194.4698 0007955 275.4709  84.5634 15.49850000109599
CONTECSAT-1             
1 59117U 24043V   26050.52738553  .00011134  00000+0  33928-3 0  9994
2 59117  97.5451 188.5701 0009915 296.3506  63.6717 15.34100350109193
TIGER-8                 
1 59120U 24043Y   26050.36038580  .00010212  00000+0  24017-3 0  9998
2 59120  97.5367 194.6759 0006897 267.0496  92.9962 15.42163925109613
LYNK TOWER 5            
1 59121U 24043Z   26050.34211613  .00006253  00000+0  22365-3 0  9991
2 59121  97.5435 185.8812 0010331 307.5038  52.5262 15.29124330109024
NUSAT-44 (MARIA MITCHE*)
1 59122U 24043AA  26050.60643683  .00014144  00000+0  47859-3 0  9990
2 59122  97.5290 189.2216 0007054 287.7735  72.2736 15.30698936109295
LYNK TOWER 6            
1 59123U 24043AB  26050.31264012  .00008985  00000+0  32009-3 0  9991
2 59123  97.5400 185.3536 0009520 305.1451  54.8896 15.29126582109004
VSP ROSE                
1 59124U 24043AC  26050.56747042  .00004771  00000+0  17998-3 0  9997
2 59124  97.5416 185.3741 0009842 305.6106  54.4216 15.27498689109021
TRANSPORTER-10 OBJECT AD
1 59125U 24043AD  26050.33416642  .00009890  00000+0  30520-3 0  9995
2 59125  97.5445 188.4469 0008627 294.9624  65.0721 15.33745375109180
YAM-6                   
1 59126U 24043AE  26050.34018356  .00010183  00000+0  30403-3 0  9994
2 59126  97.5369 188.5066 0007666 290.4981  69.5439 15.34792406109227
JACKAL X-1L-001         
1 59127U 24043AF  26050.33844708  .00016398  00000+0  40672-3 0  9995
2 59127  97.5397 191.1315 0006960 283.5805  76.4665 15.40429612109388
TRANSPORTER-10 OBJECT AG
1 59128U 24043AG  26050.35847645  .00006956  00000+0  23893-3 0  9996
2 59128  97.5444 186.8366 0009082 300.6392  59.3953 15.30413618109084
APEX ARIES 1            
1 59129U 24043AH  26050.28023041  .00028140  00000+0  51474-3 0  9990
2 59129  97.5292 194.5880 0005972 262.0268  98.0305 15.49312387109622
GHOST-5                 
1 59130U 24043AJ  26050.33812532  .00015248  00000+0  39188-3 0  9992
2 59130  97.5402 190.8542 0007588 281.8992  78.1402 15.39356261109365
MESON-1                 
1 59131U 24043AK  26050.32282717  .00006653  00000+0  23457-3 0  9990
2 59131  97.5445 186.4243 0009305 300.9189  59.1135 15.29577289109054
LIZZIESAT-1 (LS-1)      
1 59132U 24043AL  26050.34155588  .00003945  00000+0  15418-3 0  9997
2 59132  97.5436 184.7384 0009787 304.1935  55.8375 15.26434714108950
GHOST-4                 
1 59133U 24043AM  26050.37386896  .00015072  00000+0  38272-3 0  9996
2 59133  97.5416 191.2650 0008023 280.5379  79.4962 15.39723186109389
JACKAL X-1L-002         
1 59134U 24043AN  26050.34325985  .00015985  00000+0  38036-3 0  9997
2 59134  97.5388 191.8474 0007213 273.0643  86.9778 15.41691591109430
VSP RF A1               
1 59135U 24043AP  26050.62349722  .00004626  00000+0  18071-3 0  9991
2 59135  97.5270 186.0207 0009209 295.3898  64.6387 15.26358174109054
VSP RF C1               
1 59136U 24043AQ  26050.52886042  .00005616  00000+0  19867-3 0  9996
2 59136  97.5415 186.5316 0008925 294.0423  65.9882 15.29547355109098
VSP RF B1               
1 59137U 24043AR  26049.47685990  .00000272  00000+0  13311-4 0  9990
2 59137  97.5413 185.0437 0009944 297.6078  62.4150 15.26448829108904
SENTRY                  
1 59140U 24043AU  26050.36798480  .00185770  00000+0  84184-3 0  9995
2 59140  97.5280 202.7920 0005498 254.6105 105.4556 15.83415912110156
TIGER-7                 
1 59141U 24043AV  26050.34950614  .00011899  00000+0  25103-3 0  9999
2 59141  97.5311 196.4591 0005725 235.8870 124.1835 15.45364091109759
